{"fetched_at":"2026-07-17T17:37:58.322Z","source":"https://celestrak.org/NORAD/elements/gp.php?GROUP=spire&FORMAT=JSON","constellation":"spire","records":[{"OBJECT_NAME":"LEMUR-2-HUBBLE-4","OBJECT_ID":"2025-135AP","EPOCH":"2026-07-17T06:50:11.829696","CLASSIFICATION_TYPE":"U","MEAN_MOTION":14.936892,"ECCENTRICITY":0.00028312,"INCLINATION":97.7721,"RA_OF_ASC_NODE":311.8429,"ARG_OF_PERICENTER":156.8302,"MEAN_ANOMALY":203.3046,"EPHEMERIS_TYPE":0,"NORAD_CAT_ID":64565,"ELEMENT_SET_NO":999,"REV_AT_EPOCH":5836,"BSTAR":0.000060593193,"MEAN_MOTION_DOT":0.00000584,"MEAN_MOTION_DDOT":0},{"OBJECT_NAME":"LEMUR-2-SEJONG-2","OBJECT_ID":"2025-135BL","EPOCH":"2026-07-17T06:05:14.822592","CLASSIFICATION_TYPE":"U","MEAN_MOTION":14.96921078,"ECCENTRICITY":0.00040977,"INCLINATION":97.7709,"RA_OF_ASC_NODE":313.0761,"ARG_OF_PERICENTER":208.9023,"MEAN_ANOMALY":151.1973,"EPHEMERIS_TYPE":0,"NORAD_CAT_ID":64586,"ELEMENT_SET_NO":999,"REV_AT_EPOCH":5844,"BSTAR":0.00019948563,"MEAN_MOTION_DOT":0.00002232,"MEAN_MOTION_DDOT":0},{"OBJECT_NAME":"LEMUR-2-HUBBLE-5","OBJECT_ID":"2025-135BT","EPOCH":"2026-07-17T07:01:51.475296","CLASSIFICATION_TYPE":"U","MEAN_MOTION":14.94216448,"ECCENTRICITY":0.00044555,"INCLINATION":97.7741,"RA_OF_ASC_NODE":312.5223,"ARG_OF_PERICENTER":226.7198,"MEAN_ANOMALY":133.3651,"EPHEMERIS_TYPE":0,"NORAD_CAT_ID":64840,"ELEMENT_SET_NO":999,"REV_AT_EPOCH":5840,"BSTAR":0.000043281019,"MEAN_MOTION_DOT":0.00000407,"MEAN_MOTION_DDOT":0},{"OBJECT_NAME":"LEMUR-2-KARENDARRELL","OBJECT_ID":"2025-135BU","EPOCH":"2026-07-16T20:43:35.068512","CLASSIFICATION_TYPE":"U","MEAN_MOTION":15.00513466,"ECCENTRICITY":0.00126269,"INCLINATION":97.7721,"RA_OF_ASC_NODE":314.0339,"ARG_OF_PERICENTER":99.614,"MEAN_ANOMALY":260.6511,"EPHEMERIS_TYPE":0,"NORAD_CAT_ID":64841,"ELEMENT_SET_NO":999,"REV_AT_EPOCH":5846,"BSTAR":0.00032900633,"MEAN_MOTION_DOT":0.00004093,"MEAN_MOTION_DDOT":0},{"OBJECT_NAME":"LEMUR-2-LUCILLE-ROSE","OBJECT_ID":"2025-135BV","EPOCH":"2026-07-17T07:17:34.321344","CLASSIFICATION_TYPE":"U","MEAN_MOTION":15.00502928,"ECCENTRICITY":0.00151384,"INCLINATION":97.7708,"RA_OF_ASC_NODE":314.509,"ARG_OF_PERICENTER":182.7111,"MEAN_ANOMALY":177.4033,"EPHEMERIS_TYPE":0,"NORAD_CAT_ID":65403,"ELEMENT_SET_NO":999,"REV_AT_EPOCH":5315,"BSTAR":0.00026282042,"MEAN_MOTION_DOT":0.00003258,"MEAN_MOTION_DDOT":0},{"OBJECT_NAME":"LEMUR-2-AFFIE-WAUWIE","OBJECT_ID":"2025-248C","EPOCH":"2026-07-17T07:55:40.156896","CLASSIFICATION_TYPE":"U","MEAN_MOTION":15.2831282,"ECCENTRICITY":0.00089479,"INCLINATION":45.3906,"RA_OF_ASC_NODE":311.53,"ARG_OF_PERICENTER":263.2179,"MEAN_ANOMALY":96.7692,"EPHEMERIS_TYPE":0,"NORAD_CAT_ID":66295,"ELEMENT_SET_NO":999,"REV_AT_EPOCH":3920,"BSTAR":0.00046965452,"MEAN_MOTION_DOT":0.00012925,"MEAN_MOTION_DDOT":0},{"OBJECT_NAME":"OTTER SDM","OBJECT_ID":"2025-276N","EPOCH":"2026-07-17T04:53:34.012032","CLASSIFICATION_TYPE":"U","MEAN_MOTION":15.2006996,"ECCENTRICITY":0.00044025,"INCLINATION":97.42,"RA_OF_ASC_NODE":271.1864,"ARG_OF_PERICENTER":244.4412,"MEAN_ANOMALY":115.6368,"EPHEMERIS_TYPE":0,"NORAD_CAT_ID":66678,"ELEMENT_SET_NO":999,"REV_AT_EPOCH":3497,"BSTAR":0.00015141375,"MEAN_MOTION_DOT":0.000032,"MEAN_MOTION_DDOT":0},{"OBJECT_NAME":"LEMUR-2-STAS-GORBUK","OBJECT_ID":"2025-276W","EPOCH":"2026-07-16T23:05:54.912768","CLASSIFICATION_TYPE":"U","MEAN_MOTION":15.19669071,"ECCENTRICITY":0.00036988,"INCLINATION":97.4236,"RA_OF_ASC_NODE":271.0004,"ARG_OF_PERICENTER":239.2654,"MEAN_ANOMALY":120.8217,"EPHEMERIS_TYPE":0,"NORAD_CAT_ID":66686,"ELEMENT_SET_NO":999,"REV_AT_EPOCH":3493,"BSTAR":0.00014105098,"MEAN_MOTION_DOT":0.00002941,"MEAN_MOTION_DDOT":0},{"OBJECT_NAME":"LEMUR-2-TEODOR","OBJECT_ID":"2025-276DG","EPOCH":"2026-07-16T17:11:17.628864","CLASSIFICATION_TYPE":"U","MEAN_MOTION":15.21346633,"ECCENTRICITY":0.00021993,"INCLINATION":97.4142,"RA_OF_ASC_NODE":271.032,"ARG_OF_PERICENTER":87.3498,"MEAN_ANOMALY":272.799,"EPHEMERIS_TYPE":0,"NORAD_CAT_ID":66768,"ELEMENT_SET_NO":999,"REV_AT_EPOCH":3493,"BSTAR":0.00013584838,"MEAN_MOTION_DOT":0.00002974,"MEAN_MOTION_DDOT":0},{"OBJECT_NAME":"LEMUR-2-LAILA","OBJECT_ID":"2025-276DQ","EPOCH":"2026-07-17T03:30:22.709088","CLASSIFICATION_TYPE":"U","MEAN_MOTION":15.21575778,"ECCENTRICITY":0.0002912,"INCLINATION":97.4163,"RA_OF_ASC_NODE":271.5951,"ARG_OF_PERICENTER":91.7042,"MEAN_ANOMALY":268.4528,"EPHEMERIS_TYPE":0,"NORAD_CAT_ID":66776,"ELEMENT_SET_NO":999,"REV_AT_EPOCH":3500,"BSTAR":0.00014200042,"MEAN_MOTION_DOT":0.00003133,"MEAN_MOTION_DDOT":0},{"OBJECT_NAME":"LEMUR-2-CELIJO-SB-PK","OBJECT_ID":"2025-276DW","EPOCH":"2026-07-16T17:15:11.101536","CLASSIFICATION_TYPE":"U","MEAN_MOTION":15.00294496,"ECCENTRICITY":0.0006895,"INCLINATION":97.5191,"RA_OF_ASC_NODE":267.5216,"ARG_OF_PERICENTER":60.6403,"MEAN_ANOMALY":299.5509,"EPHEMERIS_TYPE":0,"NORAD_CAT_ID":66781,"ELEMENT_SET_NO":999,"REV_AT_EPOCH":2705,"BSTAR":0.00026831763,"MEAN_MOTION_DOT":0.00003306,"MEAN_MOTION_DDOT":0},{"OBJECT_NAME":"LEMUR-2-FINNIAN","OBJECT_ID":"2025-276DX","EPOCH":"2026-07-16T18:07:55.044480","CLASSIFICATION_TYPE":"U","MEAN_MOTION":15.00627545,"ECCENTRICITY":0.00072159,"INCLINATION":97.5358,"RA_OF_ASC_NODE":267.8266,"ARG_OF_PERICENTER":354.7845,"MEAN_ANOMALY":5.3303,"EPHEMERIS_TYPE":0,"NORAD_CAT_ID":66782,"ELEMENT_SET_NO":999,"REV_AT_EPOCH":2443,"BSTAR":0.00011831615,"MEAN_MOTION_DOT":0.00001438,"MEAN_MOTION_DDOT":0},{"OBJECT_NAME":"LEMUR-2-STARLIGHT","OBJECT_ID":"2025-276DY","EPOCH":"2026-07-17T00:06:16.653024","CLASSIFICATION_TYPE":"U","MEAN_MOTION":14.99368921,"ECCENTRICITY":0.00147533,"INCLINATION":97.5234,"RA_OF_ASC_NODE":267.6244,"ARG_OF_PERICENTER":41.8788,"MEAN_ANOMALY":318.3562,"EPHEMERIS_TYPE":0,"NORAD_CAT_ID":66783,"ELEMENT_SET_NO":999,"REV_AT_EPOCH":3466,"BSTAR":0.00031670005,"MEAN_MOTION_DOT":0.00003825,"MEAN_MOTION_DDOT":0},{"OBJECT_NAME":"LEMUR-2-TARTIFLETTE","OBJECT_ID":"2025-276DZ","EPOCH":"2026-07-16T17:39:35.767296","CLASSIFICATION_TYPE":"U","MEAN_MOTION":14.99350642,"ECCENTRICITY":0.00139202,"INCLINATION":97.5233,"RA_OF_ASC_NODE":267.373,"ARG_OF_PERICENTER":51.1069,"MEAN_ANOMALY":309.1394,"EPHEMERIS_TYPE":0,"NORAD_CAT_ID":66784,"ELEMENT_SET_NO":999,"REV_AT_EPOCH":3462,"BSTAR":0.00028560617,"MEAN_MOTION_DOT":0.00003442,"MEAN_MOTION_DDOT":0},{"OBJECT_NAME":"LEMUR-2-VUKASIN","OBJECT_ID":"2025-276EA","EPOCH":"2026-07-17T04:07:18.210720","CLASSIFICATION_TYPE":"U","MEAN_MOTION":15.0055624,"ECCENTRICITY":0.00027307,"INCLINATION":97.5216,"RA_OF_ASC_NODE":268.1562,"ARG_OF_PERICENTER":48.5948,"MEAN_ANOMALY":311.551,"EPHEMERIS_TYPE":0,"NORAD_CAT_ID":66785,"ELEMENT_SET_NO":999,"REV_AT_EPOCH":3464,"BSTAR":0.00018759991,"MEAN_MOTION_DOT":0.0000231,"MEAN_MOTION_DDOT":0},{"OBJECT_NAME":"LEMUR-2-HOTSPUR-TOM","OBJECT_ID":"2025-276EB","EPOCH":"2026-07-17T03:08:19.733280","CLASSIFICATION_TYPE":"U","MEAN_MOTION":14.99252822,"ECCENTRICITY":0.00137202,"INCLINATION":97.5214,"RA_OF_ASC_NODE":267.7279,"ARG_OF_PERICENTER":41.5297,"MEAN_ANOMALY":318.6966,"EPHEMERIS_TYPE":0,"NORAD_CAT_ID":66786,"ELEMENT_SET_NO":999,"REV_AT_EPOCH":3461,"BSTAR":0.00024574168,"MEAN_MOTION_DOT":0.00002945,"MEAN_MOTION_DDOT":0}]}
